LANDSAT 9               
1 49260U 21088A   24125.77179724  .00000558  00000+0  13380-3 0  9993
2 49260  98.1889 196.1217 0001351  88.7161 271.4193 14.57108874138367
